{"type":"FeatureCollection",
    "features":[
        {
            "type":"Feature",
            "properties":{
                "region":"Northwest Spain",
                "name":"Galicia",
                "subregions":"Rias Baixas"
            },
            "geometry":{
                "type":"Polygon",
                "coordinates":[
                    [
                        [-8.86857084375248,41.912435700805815],
                        [-8.222184979194964,42.174991948450185],
                        [-7.46509214335984,41.86724115558661],
                        [-7.32938682372955,41.84862234375143],
                        [-6.936555635323998,42.47335070721229],
                        [-7.972201495664592,42.61280128700625],
                        [-8.54359231516338,42.59440113937197],
                        [-8.672155249549661,42.478618648033915],
                        [-8.86857084375248,41.912435700805815]
                    ]
                ]
            }
        },
        {
            "type":"Feature",
            "properties":{
                "region":"Northwest Spain",
                "name":"Pais Vasco",
                "subregions":[
                    "Getariako Txakolina",
                    "Bizkaiako Txakolina",
                    "Arabako Txakolina"
                ]
            },
            "geometry":{
                "type":"Polygon",
                "coordinates":[
                    [
                        [-4.382108536023992,43.39424658959305],
                        [-2.8359810964856536,43.09431959221155],
                        [-1.8444428472161007,43.302589037786845],
                        [-2.4830607026781024,43.363709451198616],
                        [-2.877995429081153,43.42476834786814],
                        [-3.088067092062005,43.33926866742115],
                        [-3.5838362166963122,43.516241332965166],
                        [-3.7434906805620187,43.388140392294076],
                        [-4.382108536023992,43.39424658959305]
                    ]
                ]
            }
        },
        {
            "type":"Feature",
            "properties":{
                "region":"Northwest Spain",
                "name":"Castilla and Leon",
                "subregions":[
                    "Toro",
                    "Ribera Del Duero",
                    "Rueda"
                ]
            },
            "geometry":{
                "type":"Polygon",
                "coordinates":[
                    [
                        [-6.764545460736855,42.84040459362589],
                        [-6.92087558625073,42.464776899133966],
                        [-6.931333952199395,41.90096584551887],
                        [-6.5665137154884405,41.9474983435251],
                        [-6.493583451931386,41.68336698418469],
                        [-6.201726687465168,41.56649765422094],
                        [-6.91054946054291,41.00253871352672],
                        [-6.962664864317276,40.12359658461645],
                        [-4.461053856379266,40.46551183635532],
                        [-1.8865309798909493,41.23029734145854],
                        [-2.3241698646375824,43.153019822419424],
                        [-2.7933378537943554,43.07688925419845],
                        [-4.825867092932782,43.16055829373289],
                        [-6.764545460736855,42.84040459362589]
                    ]
                ]
            }
        }
    ]
}
